     2.11           N: GPS NAV DATA                         RINEX VERSION / TYPE
teqc  2018Jan11                         20181024 19:49:02UTCPGM / RUN BY / DATE
Linux 2.4.21-27.ELsmp|Opteron|gcc -static|Linux 64|=+       COMMENT
     2.10           N: GPS NAV DATA                         COMMENT
rvacn.e(1404.07)                        2018-10-24T19:33 UTCCOMMENT
This file contains the validated broadcast navigation       COMMENT
messages from the following files:                          COMMENT
aaaa2970.18n, abmf297s.18n, abpo297s.18n, albh297s.18n,     COMMENT
alic297s.18n, badg297s.18n, cas1297s.18n, chpi297s.18n,     COMMENT
chum297s.18n, chur297s.18n, ckis297s.18n, coco297s.18n,     COMMENT
cro1297s.18n, darw297s.18n, dav1297s.18n, drao297s.18n,     COMMENT
faa1297s.18n, fair297s.18n, falk297s.18n, flin297s.18n,     COMMENT
func297s.18n, godz297s.18n, gol2297s.18n, harb297s.18n,     COMMENT
hlfx297s.18n, hob2297s.18n, holb297s.18n, hrao297s.18n,     COMMENT
iisc297s.18n, kat1297s.18n, kerg297s.18n, kiri297s.18n,     COMMENT
kiru297s.18n, kokb297s.18n, kokv297s.18n, kour297s.18n,     COMMENT
krgg297s.18n, laut297s.18n, lpal297s.18n, lpgs297s.18n,     COMMENT
mac1297s.18n, mal2297s.18n, mas1297s.18n, mat1297s.18n,     COMMENT
mate297s.18n, maw1297s.18n, mcm4297s.18n, mkea297s.18n,     COMMENT
mobs297s.18n, nano297s.18n, naur297s.18n, nium297s.18n,     COMMENT
nklg297s.18n, not1297s.18n, nya1297s.18n, nyal297s.18n,     COMMENT
ohi2297s.18n, pert297s.18n, pie1297s.18n, pohn297s.18n,     COMMENT
sant297s.18n, sch2297s.18n, shao297s.18n, sthl297s.18n,     COMMENT
stjo297s.18n, suth297s.18n, sydn297s.18n, tash297s.18n,     COMMENT
tid1297s.18n, tidb297s.18n, tow2297s.18n, tro1297s.18n,     COMMENT
tuva297s.18n, unbj297s.18n, vacs297s.18n, whit297s.18n,     COMMENT
will297s.18n, yar2297s.18n, yell297s.18n                    COMMENT
    1.2107D-08  0.0000D+00 -1.1921D-07  0.0000D+00          ION ALPHA
    9.4208D+04  0.0000D+00 -1.9661D+05  0.0000D+00          ION BETA
   -3.725290298462D-09-1.154631945610D-14   405504     2024 DELTA-UTC: A0,A1,T,W
                                                            END OF HEADER
 1 18 10 24 16  0  0.0-1.047449186444D-04-5.115907697473D-12 0.000000000000D+00
    2.400000000000D+01 6.003125000000D+01 4.519831126251D-09-2.328315992438D+00
    2.933666110039D-06 8.143148035742D-03 7.936730980873D-06 5.153658798218D+03
    3.168000000000D+05 1.378357410431D-07 9.030576552904D-01-1.378357410431D-07
    9.728348524422D-01 2.322500000000D+02 6.997180621802D-01-7.972474942725D-09
    7.421737716595D-10 1.000000000000D+00 2.024000000000D+03 0.000000000000D+00
    2.000000000000D+00 0.000000000000D+00 5.587935447693D-09 2.400000000000D+01
    3.096180000000D+05 4.000000000000D+00
 2 18 10 24 16  0  0.0-3.917142748833D-05-1.068656274583D-11 0.000000000000D+00
    4.900000000000D+01 6.478125000000D+01 4.859130875445D-09-1.998400449537D+00
    3.505498170853D-06 1.827189628966D-02 7.521361112595D-06 5.153578561783D+03
    3.168000000000D+05 2.682209014893D-07 8.388014583048D-01 9.499490261078D-08
    9.519812141587D-01 2.245312500000D+02-1.821211977086D+00-7.981046934447D-09
    7.118153844132D-10 1.000000000000D+00 2.024000000000D+03 0.000000000000D+00
    2.000000000000D+00 0.000000000000D+00-2.048909664154D-08 4.900000000000D+01
    3.096300000000D+05
 3 18 10 24 16  0  0.0 1.527066342533D-04 4.320099833421D-12 0.000000000000D+00
    1.600000000000D+01-4.218750000000D+01 5.017709007721D-09 2.855032497598D+00
   -2.264976501465D-06 1.815020921640D-03 4.917383193970D-06 5.153646425247D+03
    3.168000000000D+05-4.097819328308D-08 1.946223303807D+00-1.676380634308D-08
    9.613630336120D-01 2.834687500000D+02 6.905664328867D-01-8.347847721365D-09
   -4.128743407307D-10 1.000000000000D+00 2.024000000000D+03 0.000000000000D+00
    2.000000000000D+00 0.000000000000D+00 2.328306436539D-09 1.600000000000D+01
    3.096180000000D+05 4.000000000000D+00
 4 18 10 24 16  0  0.0-1.765321940184D-06-2.603428583825D-11 0.000000000000D+00
    7.400000000000D+01-7.909375000000D+01 4.337323524077D-09 5.492814562346D-02
   -4.073604941368D-06 1.361501507927D-02 1.220218837261D-05 5.153677410126D+03
    3.168000000000D+05 1.490116119385D-07-2.494167595863D-01 1.620501279831D-07
    9.591273202799D-01 1.466875000000D+02 5.720029658766D-01-8.141767708734D-09
   -1.032185851827D-10 1.000000000000D+00 2.024000000000D+03 0.000000000000D+00
    2.800000000000D+00 6.300000000000D+01-5.587935447693D-09 7.400000000000D+01
    3.096180000000D+05 4.000000000000D+00
 5 18 10 24 16  0  0.0-7.003545761108D-07 3.410605131648D-13 0.000000000000D+00
    2.600000000000D+01-4.168750000000D+01 5.390224711022D-09 5.637738892969D-01
   -1.965090632439D-06 5.579302669503D-03 4.533678293228D-06 5.153557292938D+03
    3.168000000000D+05 1.303851604462D-08 1.922340494683D+00 9.313225746155D-09
    9.482315415355D-01 2.837500000000D+02 7.103151920503D-01-8.655002936564D-09
   -4.225176042372D-10 1.000000000000D+00 2.024000000000D+03 0.000000000000D+00
    2.000000000000D+00 0.000000000000D+00-1.117587089539D-08 2.600000000000D+01
    3.096300000000D+05
 6 18 10 24 16  0  0.0 3.447006456554D-04-5.911715561524D-12 0.000000000000D+00
    5.200000000000D+01 5.768750000000D+01 4.533045938615D-09-2.006293135419D+00
    3.119930624962D-06 1.014484441839D-03 7.763504981995D-06 5.153721973419D+03
    3.168000000000D+05-4.097819328308D-08 8.947476135095D-01-7.450580596924D-09
    9.725319450134D-01 2.367812500000D+02-1.180613039946D+00-7.996047379777D-09
    6.321692058719D-10 1.000000000000D+00 2.024000000000D+03 0.000000000000D+00
    2.000000000000D+00 0.000000000000D+00 4.656612873077D-09 5.200000000000D+01
    3.096300000000D+05
 7 18 10 24 16  0  0.0 1.009972766042D-04-6.821210263297D-12 0.000000000000D+00
    2.100000000000D+01 1.135312500000D+02 4.605191783469D-09-2.963818864689D+00
    5.712732672691D-06 1.209917583037D-02 5.859881639481D-06 5.153638130188D+03
    3.168000000000D+05-5.401670932770D-08-2.227244721751D+00-2.067536115646D-07
    9.572940732664D-01 2.633750000000D+02-2.484432389530D+00-8.130696116382D-09
    4.310893864101D-10 1.000000000000D+00 2.024000000000D+03 0.000000000000D+00
    2.000000000000D+00 0.000000000000D+00-1.117587089539D-08 2.100000000000D+01
    3.106500000000D+05
 8 18 10 24 16  0  0.0-1.197298988700D-04-1.250555214938D-12 0.000000000000D+00
    2.300000000000D+01-7.753125000000D+01 3.957307694893D-09 2.583015511593D-01
   -3.999099135399D-06 3.675757208839D-03 1.300685107708D-05 5.153651184082D+03
    3.168000000000D+05 6.519258022308D-08-1.619746627806D-01-6.332993507385D-08
    9.701879947614D-01 1.325312500000D+02-4.148006724901D-01-7.807468069526D-09
   -2.071514858337D-11 1.000000000000D+00 2.024000000000D+03 0.000000000000D+00
    2.000000000000D+00 0.000000000000D+00 5.122274160385D-09 2.300000000000D+01
    3.096180000000D+05 4.000000000000D+00
10 18 10 24 16  0  0.0 1.716190017760D-04-3.637978807092D-12 0.000000000000D+00
    6.600000000000D+01-4.387500000000D+01 5.091997816434D-09 1.994490423538D+00
   -2.214685082436D-06 3.914660424925D-03 4.995614290237D-06 5.153657892227D+03
    3.168000000000D+05-1.173466444016D-07 1.942857771527D+00 1.378357410431D-07
    9.614227001888D-01 2.846250000000D+02-2.816959492824D+00-8.424993791951D-09
   -3.814444601214D-10 1.000000000000D+00 2.024000000000D+03 0.000000000000D+00
    2.000000000000D+00 0.000000000000D+00 1.862645149231D-09 6.600000000000D+01
    3.096000000000D+05
11 18 10 24 16  0  0.0-7.068500854075D-04 3.637978807092D-12 0.000000000000D+00
    6.000000000000D+01 4.306250000000D+01 5.477728169365D-09-2.980840068685D+00
    2.160668373108D-06 1.688957016449D-02 1.162849366665D-05 5.153669094086D+03
    3.168000000000D+05 2.384185791016D-07 4.663118393941D-01 1.993030309677D-07
    9.072757776893D-01 1.193125000000D+02 1.833443005049D+00-8.221771041194D-09
    6.278832967167D-10 1.000000000000D+00 2.024000000000D+03 0.000000000000D+00
    2.000000000000D+00 0.000000000000D+00-1.210719347000D-08 6.000000000000D+01
    3.096180000000D+05 4.000000000000D+00
12 18 10 24 16  0  0.0 2.973820082843D-04-2.842170943040D-12 0.000000000000D+00
    6.400000000000D+01-7.881250000000D+01 4.090527472300D-09 2.708115052273D+00
   -4.120171070099D-06 7.036338443868D-03 3.535300493240D-06 5.153753286362D+03
    3.168000000000D+05 1.862645149231D-08-1.130874935606D+00-7.636845111847D-08
    9.848953114716D-01 3.222812500000D+02 1.022599909585D+00-8.012476904184D-09
   -3.007268045696D-10 1.000000000000D+00 2.024000000000D+03 0.000000000000D+00
    2.000000000000D+00 0.000000000000D+00-1.257285475731D-08 6.400000000000D+01
    3.096300000000D+05
14 18 10 24 16  0  0.0-9.645335376263D-05 3.410605131648D-13 0.000000000000D+00
    2.800000000000D+01 3.353125000000D+01 4.283035548479D-09-3.939191948756D-01
    1.715496182442D-06 1.001253165305D-02 1.331232488155D-05 5.153651102066D+03
    3.168000000000D+05-5.215406417847D-08 3.070205339542D+00 8.381903171539D-08
    9.612961533862D-01 1.250625000000D+02-1.944919931573D+00-8.056049852527D-09
   -3.053698627377D-10 1.000000000000D+00 2.024000000000D+03 0.000000000000D+00
    2.000000000000D+00 0.000000000000D+00-9.778887033463D-09 2.800000000000D+01
    3.096000000000D+05
15 18 10 24 16  0  0.0-3.420617431402D-04 1.250555214938D-12 0.000000000000D+00
    1.700000000000D+01-3.000000000000D+00 5.035924122154D-09-1.042184943346D+00
   -1.657754182816D-07 1.091693295166D-02 1.172721385956D-05 5.153587766647D+03
    3.168000000000D+05 2.533197402954D-07 2.904746737355D+00 1.508742570877D-07
    9.285714542254D-01 1.360312500000D+02 7.217451348505D-01-8.233199899621D-09
   -4.360895811129D-10 1.000000000000D+00 2.024000000000D+03 0.000000000000D+00
    2.000000000000D+00 0.000000000000D+00-1.117587089539D-08 1.700000000000D+01
    3.115200000000D+05
